COSMOS 2532             
1 43753U 18097C   24154.90727401  .00000056  00000+0  33398-3 0  9992
2 43753  82.5126 324.1621 0017617 237.7730 122.1642 12.42888743249817
MINXSS-2                
1 43758U 18099A   24154.18011483  .00009765  00000+0  62383-3 0  9997
2 43758  97.5553 216.7698 0016597  14.7749 345.3961 15.08737341300522
SIRION PATHFINDER-2     
1 43759U 18099B   24154.11121956  .00005789  00000+0  43865-3 0  9994
2 43759  97.5278 210.6766 0010967 340.6370  19.4437 15.02598801300248
AISTECHSAT 2            
1 43768U 18099L   24154.12531070  .00004996  00000+0  37894-3 0  9991
2 43768  97.5363 208.6090 0005810 359.0462   1.0751 15.02657307299865
FOX-1CLIFF (AO-95)      
1 43770U 18099N   24154.15324103  .00008355  00000+0  58231-3 0  9995
2 43770  97.5471 212.3211 0015185  59.4554 300.8170 15.05571558300307
2018-099Q               
1 43772U 18099Q   24154.61113785  .00009908  00000+0  62049-3 0  9997
2 43772  97.5250 216.1931 0004181 329.3150  30.7834 15.09565089300526
RANGE-A                 
1 43773U 18099R   24154.58484309  .00004012  00000+0  30830-3 0  9991
2 43773  97.4993 208.2978 0014487  28.2285 331.9723 15.02205924300241
HIBER-2                 
1 43774U 18099S   24154.64454916  .00013196  00000+0  78866-3 0  9994
2 43774  97.5447 217.2994 0008862   8.2815 351.8560 15.11174198300576
MOVE-II                 
1 43780U 18099Y   24154.63202336  .00016706  00000+0  89092-3 0  9990
2 43780  97.5229 217.7597 0006664  43.0569 317.1184 15.15220515300729
VESTA-1                 
1 43781U 18099Z   24154.10506343  .00014387  00000+0  90790-3 0  9998
2 43781  97.5198 212.1929 0006557  38.3659 321.8035 15.09182175300416
SNUSAT-2                
1 43782U 18099AA  24154.89068501  .00006603  00000+0  47147-3 0  9994
2 43782  97.5153 212.2713 0014261 358.3267   1.7909 15.04755481300427
SNUGLITE                
1 43784U 18099AC  24154.38799220  .00007651  00000+0  53037-3 0  9998
2 43784  97.4952 211.1328 0004348  20.1866 339.9532 15.05883053300414
ITASAT                  
1 43786U 18099AE  24154.89064943  .00006397  00000+0  46442-3 0  9991
2 43786  97.5125 212.5588 0018376  46.5959 313.6794 15.04089643300425
KAZSCISAT-1             
1 43787U 18099AF  24154.11745771  .00016135  00000+0  89097-3 0  9996
2 43787  97.5081 214.5315 0005507  16.3585 343.7824 15.13993661300656
EAGLET-I                
1 43790U 18099AJ  24154.59114051  .00004701  00000+0  35602-3 0  9992
2 43790  97.5270 212.7481 0014151  22.7248 337.4601 15.02682294300081
ESEO                    
1 43792U 18099AL  24154.39232930  .00001515  00000+0  12759-3 0  9997
2 43792  97.5195 209.5174 0013689  23.8646 336.3210 14.99594600299989
CSIM-FD                 
1 43793U 18099AM  24154.15656141  .00014015  00000+0  74994-3 0  9994
2 43793  97.5300 219.0003 0011879  10.5010 349.6468 15.15101212300507
ORBWEAVER 1             
1 43795U 18099AP  24154.14960063  .00072613  00000+0  18502-2 0  9996
2 43795  97.5300 227.2132 0003891 231.3120 128.7778 15.39275374301297
THEA                    
1 43796U 18099AQ  24154.72011439  .00009148  00000+0  60411-3 0  9995
2 43796  97.5470 216.9809 0012993  13.4562 346.7010 15.07575196299527
ASTROCAST 0.1           
1 43798U 18099AS  24154.43752710  .00009352  00000+0  55679-3 0  9996
2 43798  97.5367 217.7300 0008845 347.4105  12.6902 15.11402731300658
JY1SAT (JO-97)          
1 43803U 18099AX  24154.16337221  .00008390  00000+0  56195-3 0  9994
2 43803  97.5218 213.1687 0009479   3.9711 356.1590 15.07111228300437
SUOMI-100               
1 43804U 18099AY  24154.14073414  .00006600  00000+0  45120-3 0  9992
2 43804  97.5284 212.9500 0015273 359.1984   0.9216 15.06374002300416
AL-FARABI 2             
1 43805U 18099AZ  24154.64015783  .00011905  00000+0  72259-3 0  9990
2 43805  97.5117 215.1652 0009649 349.2107  10.8914 15.10629251300646
CENTAURI-1              
1 43809U 18099BD  24154.88709318  .00005467  00000+0  40295-3 0  9995
2 43809  97.5312 212.7040 0018651  16.2244 343.9575 15.03577100300131
GLOBAL-2                
1 43812U 18099BG  24154.59223106  .00003149  00000+0  25359-3 0  9992
2 43812  97.4837 209.8862 0007195 158.4500 201.7028 15.00612066299904
BRIO                    
1 43813U 18099BH  24154.17743635  .00016474  00000+0  88737-3 0  9995
2 43813  97.5684 222.6246 0005882 353.3888   6.7265 15.14875682300416
SEAHAWK-1               
1 43820U 18099BQ  24154.10649344  .00008252  00000+0  58578-3 0  9993
2 43820  97.5048 210.9434 0012093  16.7804 343.3820 15.04923214299763
SAUDISAT 5A             
1 43831U 18102A   24154.92006636  .00005719  00000+0  30242-3 0  9994
2 43831  97.4089 220.8956 0011508 222.1692 137.8657 15.15799925302431
SAUDISAT 5B             
1 43833U 18102C   24154.89824655  .00004911  00000+0  25547-3 0  9996
2 43833  97.4135 222.6718 0012142 227.0981 132.9234 15.16442774302515
2018-102D               
1 43834U 18102D   24154.92868102  .00009181  00000+0  41168-3 0  9997
2 43834  97.4254 226.6979 0010694 217.6418 142.4070 15.21388650302726
2018-102E               
1 43835U 18102E   24154.93003126  .00027441  00000+0  84057-3 0  9999
2 43835  97.4301 232.7999 0010013 197.8315 162.2577 15.33726037303125
2018-102F               
1 43836U 18102F   24154.89976891  .00031006  00000+0  92291-3 0  9994
2 43836  97.4357 234.3797 0010066 198.7968 161.2904 15.34608795303149
2018-102G               
1 43837U 18102G   24154.88678382  .00033102  00000+0  90849-3 0  9994
2 43837  97.4386 235.9804 0009740 198.6054 161.4835 15.37142238303255
2018-102H               
1 43838U 18102H   24154.90451146  .00080486  00000+0  14490-2 0  9999
2 43838  97.3923 237.1014 0010494 207.9309 152.1380 15.49474407303468
2018-102J               
1 43839U 18102J   24154.93376447  .00029879  00000+0  87558-3 0  9998
2 43839  97.4555 238.9947 0010939 204.0097 156.0637 15.35100988303251
ISAT                    
1 43879U 18111D   24154.30448765  .00010231  00000+0  62932-3 0  9997
2 43879  97.6206  60.0804 0014827  56.1431 304.1207 15.10135735297177
UWE-4                   
1 43880U 18111E   24153.94988444  .00009803  00000+0  61756-3 0  9997
2 43880  97.6131  59.7844 0018547  64.2558 296.0583 15.09220151297135
D-STAR ONE (SPARROW)    
1 43881U 18111F   24154.67791941  .00010677  00000+0  64782-3 0  9996
2 43881  97.6302  62.3252 0012547  90.5079 269.7588 15.10648895297293
LEMUR-2-TINYKEV         
1 43883U 18111H   24154.32265524  .00028135  00000+0  12106-2 0  9993
2 43883  97.6139  67.1817 0009253  39.5398 320.6511 15.22551794297635
LEMUR-2-REMY-COLTON     
1 43884U 18111J   24154.24361497  .00019866  00000+0  94580-3 0  9999
2 43884  97.6302  67.5905 0003679  76.6459 283.5185 15.19181305295585
MICRODRAGON             
1 43935U 19003D   24154.82083983  .00068842  00000+0  83760-3 0  9998
2 43935  97.0760 170.7845 0011001 111.5000 248.7431 15.60250793299690
JILIN-1 09              
1 43943U 19005B   24154.92885997  .00007157  00000+0  35753-3 0  9996
2 43943  97.4881 248.9087 0016843 358.5744   1.5439 15.17653776296331
JILIN-1 10              
1 43946U 19005E   24154.89487644  .00006344  00000+0  31590-3 0  9994
2 43946  97.4879 248.9185 0028321 352.7704   7.3117 15.17584963296255
EGYPTSAT-A (MISRSAT-A)  
1 44047U 19008A   24154.89975751  .00001036  00000+0  17164-3 0  9995
2 44047  98.0147 219.3477 0000933  97.1557 262.9757 14.72330208283722
EMISAT                  
1 44078U 19018A   24154.92959577  .00000393  00000+0  12817-3 0  9997
2 44078  98.3382 214.4738 0017581 309.5639  50.3998 14.43726767272679
AIS & APRS & ARIS & R/B 
1 44104U 19018AC  24154.86515584  .00277007  32097-4  70104-3 0  9993
2 44104  97.3628 265.1998 0008038   6.4338 353.7039 15.95467773290592
JILIN-1 GAOFEN 3A       
1 44312U 19032C   24154.86973019  .00006234  00000+0  37820-3 0  9995
2 44312  44.9842  68.9249 0009693  29.6164 330.5260 15.11317079274412
XIAOXIANG 4             
1 44313U 19032D   24154.89910382  .00015830  00000+0  76542-3 0  9999
2 44313  44.9912  53.8105 0007874  52.9851 307.1748 15.18480403274641
WT 1A                   
1 44315U 19032F   24154.86889059  .00012491  00000+0  64704-3 0  9991
2 44315  44.9801  49.5310 0010912  59.6653 300.5304 15.16214563274657
WT 1B                   
1 44316U 19032G   24154.89261325  .00005945  00000+0  40585-3 0  9992
2 44316  44.9799 101.3205 0014342 357.8339   2.2471 15.06989390274049
PROX-1                  
1 44339U 19036A   24154.82183721  .00010507  00000+0  18128-2 0  9994
2 44339  24.0009 317.8336 0007724 198.1919 161.8299 14.66554893263131
NPSAT1                  
1 44340U 19036B   24154.86111061  .00006765  00000+0  12926-2 0  9999
2 44340  24.0012 341.4482 0009372 151.3997 208.7011 14.61495129262931
FORMOSAT 7-3            
1 44343U 19036E   24154.65480361  .00007644  00000+0  43227-3 0  9997
2 44343  23.9996 251.6055 0002083  97.0070 263.0671 15.10397375270698
FORMOSAT 7-1            
1 44349U 19036L   24154.12619633  .00007511  00000+0  42455-3 0  9996
2 44349  23.9993  71.2346 0002575  88.5380 271.5419 15.10379458272389
FORMOSAT 7-4            
1 44350U 19036M   24154.34612024  .00007184  00000+0  40508-3 0  9992
2 44350  23.9978 131.8091 0002715  83.8094 276.2719 15.10391048271833
FORMOSAT 7-2            
1 44351U 19036N   24154.43515735  .00006986  00000+0  39348-3 0  9993
2 44351  23.9977 185.5357 0002435  64.1452 295.9303 15.10378465271366
FORMOSAT 7-6            
1 44353U 19036Q   24154.89708049  .00008175  00000+0  46385-3 0  9998
2 44353  24.0003   3.1664 0001378 100.8349 259.2310 15.10387112269664
FORMOSAT 7-5            
1 44358U 19036V   24154.80807691  .00008136  00000+0  46123-3 0  9994
2 44358  24.0001 303.5462 0000323 254.8101 105.2367 15.10411999270176
METEOR-M2 2             
1 44387U 19038A   24154.88575258  .00000064  00000+0  47821-4 0  9996
2 44387  98.8259 124.0541 0001829  42.4080 317.7239 14.23890399255354
